start=new Date('2021-09-07T00:00:00.000Z').valueOf();
sats=[{"ELEMENT_SET_NO":"999","ARG_OF_PERICENTER":"83.1522","TLE_LINE2":"2 47820  53.0560  85.5563 0001805  83.1522 276.9672 15.06390241 28593","NORAD_CAT_ID":"47820","TLE_LINE1":"1 47820U 21018AK  21249.85684803 -.00000849  00000-0 -38091-4 0  9991","EPHEMERIS_TYPE":"0","APOAPSIS":"548.493","COUNTRY_CODE":"US","OBJECT_ID":"2021-018AK","SITE":"AFETR","MEAN_ANOMALY":"276.9672","BSTAR":"-0.00003809100000","FILE":"3109923","OBJECT_TYPE":"PAYLOAD","TIME_SYSTEM":"UTC","MEAN_MOTION_DDOT":"0.0000000000000","RCS_SIZE":"LARGE","REF_FRAME":"TEME","CLASSIFICATION_TYPE":"U","PERIOD":"95.593","INCLINATION":"53.0560","MEAN_ELEMENT_THEORY":"SGP4","GP_ID":"184225738","ECCENTRICITY":"0.00018050","MEAN_MOTION_DOT":"-0.00000849","OBJECT_NAME":"STARLINK-2403","CENTER_NAME":"EARTH","PERIAPSIS":"545.993","SEMIMAJOR_AXIS":"6925.378","EPOCH":"2021-09-06T20:33:51.669792","MEAN_MOTION":"15.06390241","REV_AT_EPOCH":"2859","RA_OF_ASC_NODE":"85.5563","DECAY_DATE":null,"LAUNCH_DATE":"2021-03-11"},{"SEMIMAJOR_AXIS":"6925.350","EPOCH":"2021-09-06T21:37:30.509184","MEAN_MOTION":"15.06399688","RA_OF_ASC_NODE":"75.3597","REV_AT_EPOCH":"2868","DECAY_DATE":null,"LAUNCH_DATE":"2021-03-11","INCLINATION":"53.0562","MEAN_ELEMENT_THEORY":"SGP4","GP_ID":"184226488","ECCENTRICITY":"0.00021090","MEAN_MOTION_DOT":"0.00000740","OBJECT_NAME":"STARLINK-2406","CENTER_NAME":"EARTH","PERIAPSIS":"545.754","OBJECT_ID":"2021-018AL","SITE":"AFETR","MEAN_ANOMALY":"277.0247","BSTAR":"0.00006857500000","FILE":"3109923","TIME_SYSTEM":"UTC","OBJECT_TYPE":"PAYLOAD","RCS_SIZE":"LARGE","MEAN_MOTION_DDOT":"0.0000000000000","REF_FRAME":"TEME","CLASSIFICATION_TYPE":"U","PERIOD":"95.592","ELEMENT_SET_NO":"999","TLE_LINE2":"2 47821  53.0562  75.3597 0002109  83.0982 277.0247 15.06399688 28681","ARG_OF_PERICENTER":"83.0982","NORAD_CAT_ID":"47821","EPHEMERIS_TYPE":"0","TLE_LINE1":"1 47821U 21018AL  21249.90104756  .00000740  00000-0  68575-4 0  9990","APOAPSIS":"548.675","COUNTRY_CODE":"US"},{"PERIOD":"95.593","CLASSIFICATION_TYPE":"U","REF_FRAME":"TEME","MEAN_MOTION_DDOT":"0.0000000000000","RCS_SIZE":"LARGE","TIME_SYSTEM":"UTC","OBJECT_TYPE":"PAYLOAD","FILE":"3109923","BSTAR":"-0.00004233800000","MEAN_ANOMALY":"277.8264","SITE":"AFETR","OBJECT_ID":"2021-018AM","COUNTRY_CODE":"US","APOAPSIS":"548.470","EPHEMERIS_TYPE":"0","TLE_LINE1":"1 47822U 21018AM  21249.84578858 -.00000912  00000-0 -42338-4 0  9994","NORAD_CAT_ID":"47822","TLE_LINE2":"2 47822  53.0541  85.5997 0001780  82.2927 277.8264 15.06392401 28548","ARG_OF_PERICENTER":"82.2927","ELEMENT_SET_NO":"999","LAUNCH_DATE":"2021-03-11","DECAY_DATE":null,"RA_OF_ASC_NODE":"85.5997","REV_AT_EPOCH":"2854","MEAN_MOTION":"15.06392401","EPOCH":"2021-09-06T20:17:56.133312","SEMIMAJOR_AXIS":"6925.372","CENTER_NAME":"EARTH","PERIAPSIS":"546.004","OBJECT_NAME":"STARLINK-2407","MEAN_MOTION_DOT":"-0.00000912","ECCENTRICITY":"0.00017800","GP_ID":"184225236","MEAN_ELEMENT_THEORY":"SGP4","INCLINATION":"53.0541"},{"ELEMENT_SET_NO":"999","TLE_LINE2":"2 47823  53.0557  75.5336 0001855  81.0961 279.0238 15.06403976 28680","ARG_OF_PERICENTER":"81.0961","NORAD_CAT_ID":"47823","TLE_LINE1":"1 47823U 21018AN  21249.86144596  .00001036  00000-0  88420-4 0  9993","EPHEMERIS_TYPE":"0","COUNTRY_CODE":"US","APOAPSIS":"548.486","MEAN_ANOMALY":"279.0238","BSTAR":"0.00008842000000","OBJECT_ID":"2021-018AN","SITE":"AFETR","FILE":"3109923","RCS_SIZE":"LARGE","MEAN_MOTION_DDOT":"0.0000000000000","OBJECT_TYPE":"PAYLOAD","TIME_SYSTEM":"UTC","PERIOD":"95.592","CLASSIFICATION_TYPE":"U","REF_FRAME":"TEME","MEAN_ELEMENT_THEORY":"SGP4","INCLINATION":"53.0557","GP_ID":"184224987","ECCENTRICITY":"0.00018550","MEAN_MOTION_DOT":"0.00001036","OBJECT_NAME":"STARLINK-2408","CENTER_NAME":"EARTH","PERIAPSIS":"545.917","MEAN_MOTION":"15.06403976","REV_AT_EPOCH":"2868","RA_OF_ASC_NODE":"75.5336","SEMIMAJOR_AXIS":"6925.336","EPOCH":"2021-09-06T20:40:28.930944","DECAY_DATE":null,"LAUNCH_DATE":"2021-03-11"},{"SEMIMAJOR_AXIS":"6925.344","EPOCH":"2021-09-06T06:04:42.062304","MEAN_MOTION":"15.06401449","RA_OF_ASC_NODE":"78.2839","REV_AT_EPOCH":"2858","DECAY_DATE":null,"LAUNCH_DATE":"2021-03-11","INCLINATION":"53.0543","MEAN_ELEMENT_THEORY":"SGP4","GP_ID":"184196312","ECCENTRICITY":"0.00018830","MEAN_MOTION_DOT":"0.00000769","OBJECT_NAME":"STARLINK-2409","CENTER_NAME":"EARTH","PERIAPSIS":"545.905","OBJECT_ID":"2021-018AP","SITE":"AFETR","MEAN_ANOMALY":"282.2730","BSTAR":"0.00007053900000","FILE":"3109699","TIME_SYSTEM":"UTC","OBJECT_TYPE":"PAYLOAD","MEAN_MOTION_DDOT":"0.0000000000000","RCS_SIZE":"LARGE","REF_FRAME":"TEME","PERIOD":"95.592","CLASSIFICATION_TYPE":"U","ELEMENT_SET_NO":"999","TLE_LINE2":"2 47824  53.0543  78.2839 0001883  77.8470 282.2730 15.06401449 28588","ARG_OF_PERICENTER":"77.8470","NORAD_CAT_ID":"47824","TLE_LINE1":"1 47824U 21018AP  21249.25326461  .00000769  00000-0  70539-4 0  9994","EPHEMERIS_TYPE":"0","APOAPSIS":"548.513","COUNTRY_CODE":"US"},{"OBJECT_TYPE":"PAYLOAD","TIME_SYSTEM":"UTC","MEAN_MOTION_DDOT":"0.0000000000000","RCS_SIZE":"LARGE","REF_FRAME":"TEME","PERIOD":"95.592","CLASSIFICATION_TYPE":"U","OBJECT_ID":"2021-018AQ","SITE":"AFETR","MEAN_ANOMALY":"273.1116","BSTAR":"-0.00002837900000","FILE":"3109923","EPHEMERIS_TYPE":"0","TLE_LINE1":"1 47825U 21018AQ  21249.86882024 -.00000705  00000-0 -28379-4 0  9991","APOAPSIS":"548.882","COUNTRY_CODE":"US","ELEMENT_SET_NO":"999","TLE_LINE2":"2 47825  53.0544  75.4920 0002403  87.0148 273.1116 15.06398718 28686","ARG_OF_PERICENTER":"87.0148","NORAD_CAT_ID":"47825","LAUNCH_DATE":"2021-03-11","SEMIMAJOR_AXIS":"6925.352","EPOCH":"2021-09-06T20:51:06.068736","MEAN_MOTION":"15.06398718","REV_AT_EPOCH":"2868","RA_OF_ASC_NODE":"75.4920","DECAY_DATE":null,"MEAN_MOTION_DOT":"-0.00000705","OBJECT_NAME":"STARLINK-2410","CENTER_NAME":"EARTH","PERIAPSIS":"545.553","INCLINATION":"53.0544","MEAN_ELEMENT_THEORY":"SGP4","GP_ID":"184225989","ECCENTRICITY":"0.00024030"},{"BSTAR":"0.00007368900000","MEAN_ANOMALY":"283.6738","SITE":"AFETR","OBJECT_ID":"2021-018AR","FILE":"3109923","MEAN_MOTION_DDOT":"0.0000000000000","RCS_SIZE":"LARGE","OBJECT_TYPE":"PAYLOAD","TIME_SYSTEM":"UTC","PERIOD":"95.592","CLASSIFICATION_TYPE":"U","REF_FRAME":"TEME","ARG_OF_PERICENTER":"76.4478","TLE_LINE2":"2 47826  53.0558  75.5191 0002040  76.4478 283.6738 15.06401823 28686","ELEMENT_SET_NO":"999","NORAD_CAT_ID":"47826","TLE_LINE1":"1 47826U 21018AR  21249.86512619  .00000816  00000-0  73689-4 0  9997","EPHEMERIS_TYPE":"0","COUNTRY_CODE":"US","APOAPSIS":"548.621","REV_AT_EPOCH":"2868","RA_OF_ASC_NODE":"75.5191","MEAN_MOTION":"15.06401823","EPOCH":"2021-09-06T20:45:46.902816","SEMIMAJOR_AXIS":"6925.343","DECAY_DATE":null,"LAUNCH_DATE":"2021-03-11","MEAN_ELEMENT_THEORY":"SGP4","INCLINATION":"53.0558","ECCENTRICITY":"0.00020400","GP_ID":"184224737","MEAN_MOTION_DOT":"0.00000816","CENTER_NAME":"EARTH","PERIAPSIS":"545.795","OBJECT_NAME":"STARLINK-2411"},{"REF_FRAME":"TEME","CLASSIFICATION_TYPE":"U","PERIOD":"95.592","TIME_SYSTEM":"UTC","OBJECT_TYPE":"PAYLOAD","MEAN_MOTION_DDOT":"0.0000000000000","RCS_SIZE":"LARGE","FILE":"3109923","OBJECT_ID":"2021-018AS","SITE":"AFETR","MEAN_ANOMALY":"264.6763","BSTAR":"0.00012010000000","APOAPSIS":"548.343","COUNTRY_CODE":"US","EPHEMERIS_TYPE":"0","TLE_LINE1":"1 47827U 21018AS  21249.82456096  .00001508  00000-0  12010-3 0  9999","NORAD_CAT_ID":"47827","ELEMENT_SET_NO":"999","ARG_OF_PERICENTER":"95.4416","TLE_LINE2":"2 47827  53.0573  65.6949 0001662  95.4416 264.6763 15.06406896 28870","LAUNCH_DATE":"2021-03-11","DECAY_DATE":null,"SEMIMAJOR_AXIS":"6925.327","EPOCH":"2021-09-06T19:47:22.066944","MEAN_MOTION":"15.06406896","REV_AT_EPOCH":"2887","RA_OF_ASC_NODE":"65.6949","OBJECT_NAME":"STARLINK-2413","PERIAPSIS":"546.041","CENTER_NAME":"EARTH","MEAN_MOTION_DOT":"0.00001508","GP_ID":"184225487","ECCENTRICITY":"0.00016620","INCLINATION":"53.0573","MEAN_ELEMENT_THEORY":"SGP4"},{"SITE":"AFETR","OBJECT_ID":"2021-018AT","BSTAR":"0.00007142700000","MEAN_ANOMALY":"281.7942","FILE":"3109923","TIME_SYSTEM":"UTC","OBJECT_TYPE":"PAYLOAD","RCS_SIZE":"LARGE","MEAN_MOTION_DDOT":"0.0000000000000","REF_FRAME":"TEME","PERIOD":"95.592","CLASSIFICATION_TYPE":"U","ARG_OF_PERICENTER":"78.3296","TLE_LINE2":"2 47828  53.0556  85.5871 0002223  78.3296 281.7942 15.06408542 28540","ELEMENT_SET_NO":"999","NORAD_CAT_ID":"47828","EPHEMERIS_TYPE":"0","TLE_LINE1":"1 47828U 21018AT  21249.84948693  .00000782  00000-0  71427-4 0  9992","APOAPSIS":"548.727","COUNTRY_CODE":"US","EPOCH":"2021-09-06T20:23:15.670752","SEMIMAJOR_AXIS":"6925.322","REV_AT_EPOCH":"2854","RA_OF_ASC_NODE":"85.5871","MEAN_MOTION":"15.06408542","DECAY_DATE":null,"LAUNCH_DATE":"2021-03-11","INCLINATION":"53.0556","MEAN_ELEMENT_THEORY":"SGP4","ECCENTRICITY":"0.00022230","GP_ID":"184225739","MEAN_MOTION_DOT":"0.00000782","CENTER_NAME":"EARTH","PERIAPSIS":"545.648","OBJECT_NAME":"STARLINK-2415"},{"REF_FRAME":"TEME","PERIOD":"95.592","CLASSIFICATION_TYPE":"U","TIME_SYSTEM":"UTC","OBJECT_TYPE":"PAYLOAD","RCS_SIZE":"LARGE","MEAN_MOTION_DDOT":"0.0000000000000","FILE":"3109923","SITE":"AFETR","OBJECT_ID":"2021-018AU","BSTAR":"0.00008592900000","MEAN_ANOMALY":"271.7454","APOAPSIS":"548.439","COUNTRY_CODE":"US","EPHEMERIS_TYPE":"0","TLE_LINE1":"1 47829U 21018AU  21249.80155895  .00000999  00000-0  85929-4 0  9995","NORAD_CAT_ID":"47829","TLE_LINE2":"2 47829  53.0553  85.8063 0001766  88.3737 271.7454 15.06399361 28529","ARG_OF_PERICENTER":"88.3737","ELEMENT_SET_NO":"999","LAUNCH_DATE":"2021-03-11","DECAY_DATE":null,"EPOCH":"2021-09-06T19:14:14.693280","SEMIMAJOR_AXIS":"6925.351","RA_OF_ASC_NODE":"85.8063","REV_AT_EPOCH":"2852","MEAN_MOTION":"15.06399361","CENTER_NAME":"EARTH","PERIAPSIS":"545.992","OBJECT_NAME":"STARLINK-2416","MEAN_MOTION_DOT":"0.00000999","ECCENTRICITY":"0.00017660","GP_ID":"184226489","INCLINATION":"53.0553","MEAN_ELEMENT_THEORY":"SGP4"}];
